Name,City,State,Country,Latitude,Longitude,Color
Henry Busch,,CA,USA,36.778259,-119.417931,#874356
Henry Lee Lucas,Blacksburg,VA,USA,37.2296,-80.41394,#874357
Gayno Smith,Keokuk County,IA,USA,40.4015,-91.39,#874358
Richard Laurence Marquette,Portland,OR,USA,45.523064,-122.676483,#874359
Sharon Kinne,Independence,MO,USA,39.091118,-94.415504,#874360
Gary Rardon,Wayne County,NC,USA,35.5138,-77.9542,#874361
Winston Moseley,New York City,NY,USA,35.5138,-77.9542,#874362
Thomas Whisenhant,Prichard,AL,USA,30.73918,-88.080482,#874363
Rudy Bladel,Chicago,IL,USA,41.881832,-87.623177,#874364
Larry Ranes,Kalamazoo,MI,USA,42.299152,-85.591736,#874365
Charles Schmid,Tucson,AZ,USA,32.25346,-110.911789,#874366
Edmund Kemper,Burbank,CA,USA,34.18084,-118.308968,#874367
Vaughn Greenwood,,PA,USA,41.203323,-77.194527,#874368
Waneta Hoyt,Richford,NY,USA,42.3533,-76.2005,#874369
Patrick Kearney,East Los Angeles,CA,USA,34.0255,-118.1678,#874370
Janie Lou Gibbs,Cordele,GA,USA,31.9585,-83.773,#874371
Robert Biehler,Chase,KS,USA,38.27312,-98.5821872,#874372
Kenneth McDuff,Rosebud,TX,USA,38.27312,-98.5821872,#874373
Roland E. Clark,Newark,NJ,USA,40.735657,-74.172363,#874374
Lee Roy Martin,Gaffney,SC,USA,35.0697,-81.65,#874375
David Meirhofer,Bozeman,MT,USA,45.6527,-110.9392,#874376
Richard Cottingham,Bronx,NY,USA,40.837048,-73.865433,#874377
Jack Reeves,Wichita Falls,TX,USA,33.930828,-98.484879,#874378
Jerry Brudos,Webster,SD,USA,45.3336,-97.5195,#874379
John Dwight Canaday,,WA,USA,38.9072,-77.0369,#874380
Tony Costa,Cambridge,MA,USA,42.373611,-71.110558,#874381
Joseph Breslin,Philadelphia,PA,USA,39.998089,-75.134109,#874382
Leroy Snyder,Camden,NJ,USA,39.925945,-75.119621,#874383
Mark Alan Smith,Chicago,IL,USA,41.881832,-87.623177,#874384
Gary Grant,Renton,WA,USA,47.4866,-122.1952,#874385
Karl F. Werner,Marlborough,MA,USA,42.345463,-71.551628,#874386
George Fitzsimmons,KS City,MO,USA,39.1,-94.58,#874387
Gerard John Schaefer,,WI,USA,44.5,-89.5,#874388
Michael Sumpter,Boston,MA,USA,42.364758,-71.067421,#874389
Winford Stokes,St. Louis,MO,USA,38.627003,-90.199402,#874390
Gerald Stano,Schenectady,NY,USA,42.813297,-73.941177,#874391
Donald Beardslee,St. Louis,MO,USA,38.627003,-90.199402,#874392
Joe Michael Ervin,Fort Worth,TX,USA,32.768799,-97.309341,#874393
Stephen Morin,Providence,RI,USA,41.823989,-71.412834,#874394
Charles Ray Hatcher,Mound City,MO,USA,40.131107,-95.231643,#874395
Joseph Ernest Atkins,North Charleston,SC,USA,32.854622,-79.974808,#874396
Douglas Franklin Wright,Spirit Lake,IA,USA,43.425148,-95.104179,#874397
Charles Wooten,Hurst,TX,USA,32.823462,-97.170567,#874398
William Pierce,Midville,GA,USA,32.819045,-82.234845,#874399
Joseph Baldi,Queens,NY,USA,40.691294,-73.867343,#874400
Dean Corll,Fort Wayne,IN,USA,41.079273,-85.139351,#874401
Elmer Wayne Henley,Houston,TX,USA,29.749907,-95.358421,#874402
Carlton Gary,Columbus,GA,USA,32.492222,-84.940277,#874403
Robert Danielson,,IA,USA,42.032974,-93.581543,#874404
Donald Harvey,Butler County,OH,USA,39.44,-84.58,#874405
Tony Ables,St. Petersburg,FL,USA,27.773056,-82.639999,#874406
John Baughman,Orland,IL,USA,41.6303,-87.8539,#874407
Robert Charles Browne,Coushatta,LA,USA,32.014883,-93.342117,#874408
Samuel Little,Lorain,OH,USA,41.4528,-82.1824,#874409
Juan Corona,Autl√°n,Jalisco,Mexico,19.76822,-104.36664,#874410
Ricardo Caputo,Mendoza,Mendoza,Argentina,-32.888355,-68.838844,#874411
Velma Barfield,,SC,USA,33.836082,-81.163727,#874412
Ted Bundy,Burlington,VT,USA,44.4759,-73.2121,#874413
Rodney Alcala,San Antonio,TX,USA,29.424349,-98.491142,#874414
James Koedatich,Morristown,NJ,USA,40.796768,-74.481544,#874415
Judy Buenoano,Quanah,TX,USA,34.2907,-99.7385,#874416
Frank Davis,,IN,USA,39.690617,-86.173619,#874417
Robert Hansen,Estherville,IA,USA,43.4013478,-94.8391532,#874418
Randy Kraft,Long Beach,CA,USA,33.77005,33.77005,#874419
James Edward Pough,Jacksonville,FL,USA,30.332184,-81.655647,#874420
Marvin Gray,Princeton,KY,USA,37.1047,-87.8762,#874421
Charlie Brandt,Fort Wayne,IN,USA,41.079273,-85.139351,#874422
Brent Koster,Kalamazoo,MI,USA,42.2917,-85.5872,#874423
Danny Ranes,Kalamazoo,MI,USA,42.2917,-85.5872,#874424
Herbert Mullin,Felton,CA,USA,37.0508,-122.0535,#874425
Philip Joseph Hughes Jr.,Fresno County,CA,USA,36.75,-119.65,#874426
Adolph Laudenberg,Lexington,KY,USA,37.9887,-84.4777,#874427
Neal Long,Campton,KY,USA,37.734253,-83.547409,#874428
Robert Frederick Carr,,VA,USA,38.00234,-78.224935,#874429
John Wayne Gacy,Chicago,IL,USA,41.881832,-87.623177,#874430
John W. Hopkins,Johnstown,NY,USA,43.010265,-74.383682,#874431
Alvin Johnson,Smithville,TX,USA,30.0071,-97.1549,#874432
Marybeth Tinning,Duanesburg,NY,USA,42.76202,-74.1337383,#874433
John Floyd Thomas Jr.,Los Angeles,CA,USA,34.052235,-118.243683,#874434
Arthur Shawcross,Watertown,NY,USA,43.974785,-75.910759,#874435
Bernard Giles,Titusville,FL,USA,28.612219,-80.807556,#874436
Douglas Gretzler,Bronx,NY,USA,40.837048,-73.865433,#874437
Calvin Jackson,Buffalo,NY,USA,42.88023,-78.878738,#874438
(Zebra murders) Jessie Lee Cooks,,CA,USA,,,#874439
(Zebra murders) Larry Green,Berkeley,CA,USA,,,#874440
(Zebra murders) Manuel Moore,,CA,USA,,,#874441
(Zebra murders) J.C.X. Simon,Opelousas,LA,USA,,,#874442
Stephen Wayne Anderson,San Quentin,CA,USA,37.947632,-122.525261,#874443
Anthony Cook,Mobile,AL,USA,30.6944,-88.0431,#874444
Nathaniel Cook,Mobile,AL,USA,30.6944,-88.0431,#874445
Jerry Walter McFadden,Haskell County,TX,USA,37.5611249,-100.8840421,#874446
Eddie Mosley,Fort Lauderdale,FL,USA,26.122438,-80.137314,#874447
Daniel Hittle,Perry County,IN,USA,37.951445,-86.767766,#874448
James Allen Red Dog,Poplar,MT,USA,48.1057,-105.1903,#874449
Paul John Knowles,Orlando,FL,USA,28.538336,-81.379234,#874450
Kenneth Granviel,Fort Worth,TX,USA,32.768799,-97.309341,#874451
Joseph Kallinger,Philadelphia,PA,USA,39.952583,-75.165222,#874452
Ray Dell Sims,Oakland,CA,USA,37.77,-122.2,#874453
Randy Greenawalt,Hannibal,MO,USA,39.708736,-91.357063,#874454
Roger Dale Stafford,Sheffield,AL,USA,34.763912,-87.698586,#874455
Thomas Knight,Fort Pierce,FL,USA,27.450266,-80.339951,#874456
Thomas Eugene Creech,Hamilton,OH,USA,39.3995,-84.5613,#874457
Bruce Lindahl,St. Charles,IL,USA,41.914196,-88.308685,#874458
Carl Eugene Watts,Killeen,TX,USA,31.117119,-97.727798,#874459
Clayton Fountain,Fort Benning,GA,USA,32.3597,-84.9682,#874460
Wayne Nance,Clinton,MT,USA,46.87215,-113.994,#874461
Howard Allen,Indianapolis,IN,USA,39.791,-86.148003,#874462
Roy Melanson,Breaux Bridge,LA,USA,30.2735323,-91.8992837,#874463
Dennis Rader,Pittsburg,KS,USA,37.4109,-94.705,#874464
William Suff,Torrance,CA,USA,33.840763,-118.345413,#874465
David Edward Maust,Connellsville,PA,USA,39.9922,79.585,#874466
Lyle Brummett,Kerrville,TX,USA,30.0412,-99.1377,#874467
Billy Mansfield,Grand Rapids,MI,USA,42.9634,-85.6681,#874468
Gerald Frank Stanley,,CA,USA,,,#874469
Charles Jackson,,LA,USA,30.39183,-92.329102,#874470
John Ruthell Henry,Zephyrhills,FL,USA,28.23362,-82.181198,#874471
Anthony Guy Walker,Adrian,MI,USA,41.897549,-84.037163,#874472
Robert Ben Rhoades,Council Bluffs,IA,USA,41.2522,-95.8575,#874473
Robert Lee Yates,Oak Harbor,WA,USA,48.288296,-122.648422,#874474
Rodney Halbower,Muskegon,MI,USA,43.2338,-86.2423,#874475
David Berkowitz,New York City,NY,USA,35.5138,-77.9542,#874476
Montie Rissell,Wellington,KS,USA,37.267,-97.4,#874477
Thor Nis Christiansen,Folsom,CA,USA,38.678,-121.1761,#874478
Edward Delon Warren,Brookings,OR,USA,42.0575,-124.2864,#874479
Anthony LaRette,St. Charles,MO,USA,,,#874480
Ottis Toole,Jacksonville,FL,USA,30.332184,-81.655647,#874481
Steven David Catlin,Kern County,CA,USA,35.34,-118.72,#874482
Ronald Allridge,,West Germany,Germany,,,#874483
James Allridge,,West Germany,Germany,,,#874484
Joe Metheny,Baltimore,MD,USA,39.299236,-76.609383,#874485
Kenneth Bianchi,Rochester,NY,USA,43.16103,-77.610924,#874486
Angelo Buono Jr.,Rochester,NY,USA,43.16103,-77.610924,#874487
Richard Chase,Sacramento,CA,USA,38.575764,-121.478851,#874488
William Henry Hance,,GA,USA,,,#874489
(The .22 Caliber Killers) Gary Lewingdon,,OH,USA,,,#874490
(The .22 Caliber Killers) Thaddeus Lewingdon,,OH,USA,,,#874491
Danny Barber,Torrance,CA,USA,33.840763,-118.345413,#874492
Joseph Paul Franklin,Mobile,AL,USA,30.6944,-88.0431,#874493
Laron Williams,,LA,USA,,,#874494
Martha Ann Johnson,,GA,USA,,,#874495
Genene Jones,,TX,USA,,,#874496
Timothy Krajcir,West Mahanoy Township,PA,USA,40.781235,-76.215202,#874497
Roger Kibbe,San Diego County,CA,USA,33.02,-116.77,#874498
Lorenzo Gilyard,KS City,MO,USA,39.1,-94.58,#874499
Joseph Naso,Rochester,NY,USA,43.16103,-77.610924,#874500
Edward Edwards,Akron,OH,USA,41.0814,-81.519,#874501
Robert Hohenberger,,IN,USA,,,#874502
Darrell Keith Rich,,CA,USA,,,#874503
Gerald Parker,Jacksonville,FL,USA,,,#874504
Girvies Davis,East St. Louis,IL,USA,38.624516,-90.150642,#874505
Richard Holman,East St. Louis,IL,USA,38.624516,-90.150642,#874506
Andre Jones,East St. Louis,IL,USA,38.624516,-90.150642,#874507
(The Love Slave Killers) Gerald Gallego,Sacramento,CA,USA,38.575764,-121.478851,#874508
(The Love Slave Killers) Charlene Gallego,Stockton,CA,USA,37.961632,-121.275604,#874509
Robert Lee Willie,Mandeville,LA,USA,30.358252,-90.065628,#874510
Vincent Groves,Denver,CO,USA,39.742043,-104.991531,#874511
Jeffrey Dahmer,Milwaukee,WI,USA,43.0389,-87.9065,#874512
Phillip Carl Jablonski,Joshua Tree,CA,USA,33.881866,-115.90065,#874513
Robert Spangler,Des Moines,IA,USA,41.619549,-93.598022,#874514
Terry Peder Rasmussen,Denver,CO,USA,39.742043,-104.991531,#874515
Randy Gay,Garland County,AR,USA,34.5835,-93.1232,#874516
Freddie Tiller,East St. Louis,IL,USA,38.624516,-90.150642,#874517
Lawrence Bittaker,Pittsburgh,PA,USA,40.440624,-79.995888,#874518
Roy Norris,Greeley,CO,USA,40.391537,-104.681168,#874519
(Briley Brothers) Linwood Earl Briley,Richmond,VA,USA,37.5538,-77.4603,#874520
(Briley Brothers) James Dyral Briley Jr.,Richmond,VA,USA,37.5538,-77.4603,#874521
(Briley Brothers) Anthony Ray Briley,Richmond,VA,USA,37.5538,-77.4603,#874522
William Bonin,Willimantic,CT,USA,41.715839,-72.22184,#874523
Donald Murphy,Detroit,MI,USA,42.331429,-83.045753,#874524
Thomas Bunday,Nashville,TN,USA,36.174465,-86.76796,#874525
David Carpenter,San Francisco,CA,USA,37.733795,-122.446747,#874526
Wayne Williams,Atlanta,GA,USA,33.753746,-84.38633,#874527
Randall Woodfield,Salem,OR,USA,44.9429,-123.0351,#874528
William Wickline,Reynoldsburg,OH,USA,39.956,-82.8008,#874529
Arthur Gary Bishop,Hinckley,UT,USA,41.1909,-112.0073,#874530
Terry Childs,Santa Clara County,CA,USA,37.354107,-121.955238,#874531
Nicholas Todd Sutton,Morristown,TN,USA,36.213982,-83.294891,#874532
Joseph James DeAngelo,Bath,NY,USA,42.3358,-77.3167,#874533
Daniel Lee Siebert,Mattoon,IL,USA,39.4831,-88.3728,#874534
Terry Hyatt,Asheville,NC,USA,35.601,-82.554,#874535
Marvin Irvin,St. Joseph,MO,USA,39.766853,-94.834152,#874536
Ivan Hill,Los Angeles,CA,USA,34.052235,-118.243683,#874537
Carol M. Bundy,,CA,USA,36.778259,-119.417931,#874538
Doug Clark,,PA,USA,41.203323,-77.194527,#874539
Scott William Cox,Newberg,OR,USA,45.3004,-122.9759,#874540
Charles Albanese,Chicago,IL,USA,41.881832,-87.623177,#874541
Joseph Christopher,Buffalo,NY,USA,42.88023,-78.878738,#874542
Stephen McCoy,Hamilton County,OH,USA,39.101454,-84.51246,#874543
James Paster,Hamilton County,OH,USA,39.101454,-84.51246,#874544
Christine Falling,Perry,FL,USA,30.1177,-83.5827,#874545
David Mason,Statesboro,GA,USA,32.4405,-81.7742,#874546
Paul Michael Stephani,Austin,MN,USA,43.6666,-92.9746,#874547
Martin Priest,Nevada,MO,USA,37.839149,-94.355278,#874548
John Charles Bolsinger,Springfield,OR,USA,44.046204,-123.023346,#874549
Willie Ben Jones,Richmond,VA,USA,,,#874550
Charles T. Sinclair,Jal,NM,USA,32.113182,-103.193512,#874551
Herb Baumeister,INpolis,IN,USA,39.791,-86.148003,#874552
Tommy Lynn Sells,Oakland,CA,USA,37.804363,-122.271111,#874553
Reginald Perkins,Woodruff County,AR,USA,35.18627459,-91.24306034,#874554
Shirley Winters,,NY,USA,43,-75,#874555
Kelvin Malone,Seaside,CA,USA,36.614906,-121.842628,#874556
Marion Albert Pruett,Gastonia,NC,USA,35.25528,-81.180275,#874557
David Bullock,Anchorage,AK,USA,61.217381,-149.863129,#874558
(The Ripper Crew) Robin Gecht,Menard,IL,USA,40.055153,-89.727753,#874559
(The Ripper Crew) Andrew Kokoraleis,Villa Park,IL,USA,41.889752,-87.988954,#874560
(The Ripper Crew) Thomas Kokoraleis,Villa Park,IL,USA,41.889752,-87.988954,#874561
(The Ripper Crew) Edward Spreitzer,Chicago,IL,USA,41.881832,-87.623177,#874562
Michael Darnell Harris,Muskegon Heights,MI,USA,43.2007,-86.2367,#874563
Robert Anthony Buell,Norwood,OH,USA,39.1556,-84.4597,#874564
(the San Francisco Witch Killers) Michael Bear Carson,Phoenix,AZ,USA,,,#874565
(the San Francisco Witch Killers) Suzan Carson,Scottsdale,AZ,USA,,,#874566
David Alan Gore,,FL,USA,27.994402,-81.760254,#874567
Brandon Tholmer,New Orleans,LA,USA,29.951065,-90.071533,#874568
Wilbur Lee Jennings,Shreveport,LA,USA,32.4675,-93.7693,#874569
Michael Bruce Ross,Putnam,CT,USA,41.9198,-71.9045,#874570
William Scott Smith,Portland,OR,USA,45.523064,-122.676483,#874571
Robert Rozier,Anchorage,AK,USA,61.317383,-149.963129,#874572
Robert Joseph Silveria Jr.,Redwood City,CA,USA,37.487846,-122.236115,#874573
Michael Swango,Tacoma,WA,USA,47.258728,-122.465973,#874574
(Neelley couple) Alvin Neelley,Trion,GA,USA,34.5397,-85.3063,#874575
(Neelley couple) Judith Neelley,Murfreesboro,TN,USA,35.846111,-86.391945,#874576
Mary Silvani,Pontiac,MI,USA,42.638924,-83.291046,#874577
John Joubert,Lawrence,MA,USA,42.707,-71.1631,#874578
Larry Eyler,Crawfordsville,IN,USA,40.0367,-86.8913,#874579
Diane O'Dell,Orwell Township,PA,USA,41.9125747,-76.3146575,#874580
Dorothea Puente,Redlands,CA,USA,34.055569,-117.182541,#874581
Gary Ridgway,Salt Lake City,UT,USA,40.759926,-111.884888,#874582
Terry Blair,KS City,MO,USA,39.099724,-94.578331,#874583
Anthony Joyner,Philadelphia,PA,USA,39.952583,-75.165222,#874584
Anthony Sully,San Francisco,CA,USA,37.733795,-122.446747,#874585
Larry Lamont White,Louisville,KY,USA,38.224,-85.743,#874586
Milton Johnson,Joliet,IL,USA,41.520557,-88.150558,#874587
William Paul Thompson,Wichita Falls,TX,USA,33.930828,-98.484879,#874588
Brian Dugan,Nashua,NH,USA,42.765366,-71.467567,#874589
Leonard Lake,San Francisco,CA,USA,37.733795,-122.446747,#874590
Charles Ng,San Francisco,CA,USA,37.733795,-122.446747,#874591
David Dowler,Albuquerque,NM,USA,35.106766,-106.629181,#874592
Dayton Leroy Rogers,Moscow,ID,USA,46.731705,-116.999939,#874593
Homer Jackson,Berkeley,CA,USA,37.871666,-122.272781,#874594
Edward Mayrand,Northampton,MA,USA,42.3251,-72.6412,#874595
Jack Harold Jones,Toledo,OH,USA,41.651031,-83.541939,#874596
William Bradford,Pleasanton,CA,USA,37.6575,-121.8715,#874597
Richard Clarey,Wiesbaden,West Germany,Germany,50.08258,8.24932,#874598
Alton Coleman,Waukegan,IL,USA,42.3702,-87.8568,#874599
Fernando Cota,El Paso,TX,USA,,,#874600
Alvin Andrew Kelly,Culberson County,TX,USA,31.56,-104.08,#874601
Raymond Lassor,Westerly,RI,USA,41.3732,-71.823,#874602
Bobby Joe Long,Kenova,WV,USA,38.3989711,-82.5782139,#874603
Christopher Wilder,Sydney,New South Wales,Australia,151.2099,-33.865143,#874604
Theresa Knorr,Sacramento,CA,USA,38.575764,-121.478851,#874605
Richard Ramirez,El Paso,TX,USA,31.772543,-106.460953,#874606
Anthony Wimberly,Antioch,CA,USA,38.005001,-121.805832,#874607
Faryion Wardrip,Salem,IN,USA,38.60561,-86.10109,#874608
Robert Berdella,Cuyahoga Falls,OH,USA,41.1407,-81.4913,#874609
Louis Craine,Los Angeles,CA,USA,34.052235,-118.243683,#874610
Timothy Wilson Spencer,Green Valley,VA,USA,38.8551124,-77.0885893,#874611
Robert Neal Rodriguez,Portland,OR,USA,45.523064,-122.676483,#874612
(Speed Freak Killers) Loren Herzog,Linden,CA,USA,38.01814,-121.101562,#874613
(Speed Freak Killers) Wesley Shermantine,Linden,CA,USA,38.01814,-121.101562,#874614
John Edward Robinson,Cicero,IL,USA,41.8452,-87.7599,#874615
Anthony McKnight,San Quentin State Prison,CA,USA,37.9375,-122.4891,#874616
Curtis Don Brown,,TX,USA,,,#874617
Ricky Lee Green,Fort Worth,TX,USA,32.768799,-97.309341,#874618
Michael Terry,Tallassee,AL,USA,32.53699785,-85.88916311,#874619
Timothy Gribble,Cook County,IL,USA,41.7999968,-87.7166638,#874620
Frank A. Walls,Ocean City,FL,USA,30.44103,-86.61356,#874621
Jerry Little,Marks,MS,USA,34.25299899,-90.27033225,#874622
Donald Leroy Evans,Watervliet,MI,USA,42.18533259,-86.25633231,#874623
Joseph Kondro,,MI,USA,44.182205,-84.506836,#874624
Gary Evans,Troy,NY,USA,42.728104,-73.687576,#874625
Lonnie David Franklin Jr.,Los Angeles,CA,USA,34.052235,-118.243683,#874626
Cynthia Coffman,St. Louis,MO,USA,38.627003,-90.199402,#874627
Richard Louis Hunter,Atlanta,GA,USA,33.753746,-84.38633,#874628
Manuel Pardo,,NY,USA,,,#874629
Michael Player,,CA,USA,,,#874630
Oscar Ray Bolin,Portland,IN,USA,40.43366493,-84.97466277,#874631
Charles Anthony Boyd,Dallas,TX,USA,32.779167,-96.808891,#874632
Billy Glaze,,GA,USA,42.3207845,43.3713615,#874633
Harrison Graham,Philadelphia,PA,USA,39.952583,-75.165222,#874634
Ronald Gray,Cochran,GA,USA,32.38533179,-83.35033193,#874635
Morris Solomon Jr.,Albany,GA,USA,31.594915,-84.224236,#874636
John William Kelley,Placerville,CA,USA,38.729626,-120.798546,#874637
Faye Copeland,Harrison,AR,USA,36.23566572,-93.10816623,#874638
Ray Copeland,,OK,USA,,,#874639
Juan Chavez,Ciudad Juarez,Chihuahua,Mexico,31.738581,-106.487015,#874640
Joseph Daniel Miller,Steelton,PA,USA,40.22533243,-76.8259967,#874641
Hadden Clark,Troy,NY,USA,42.728104,-73.687576,#874642
Michael Hughes,,MI,USA,44.182205,-84.506836,#874643
Alexander Wayne Watson,Anne Arundel County,MD,USA,39,-76.6,#874644
Juan Segundo,Los Angeles,CA,USA,34.052235,-118.243683,#874645
Anthony Allen Shore,Rapid City,SD,USA,44.080544,-103.231018,#874646
Andrew Urdiales,Chicago,IL,USA,41.881832,-87.623177,#874647
√Ångel Maturino Res√©ndiz,Iz√∫car de Matamoros,Puebla,Mexico,,,#874648
Walter E. Ellis,Holmes County,MS,USA,33.12,-90.09,#874649
Richard Angelo,Long Island,NY,USA,40.79224,-73.13826,#874650
Daniel Lee Corwin,Garden Grove,CA,USA,33.7739,-117.9415,#874651
Gwendolyn Graham, Walker,MI,USA,,,#874652
Cathy Wood, Walker,MI,USA,,,#874653
Franklin Lynch,Alameda County,CA,USA,37.65,-121.91,#874654
Paul Ezra Rhoades,ID Falls,ID,USA,43.49165,-112.033966,#874655
Michael Torrence,Pine Ridge,SC,USA,33.90649637,-81.10449958,#874656
David Leonard Wood,San Angelo,TX,USA,31.442778,-100.450279,#874657
Michael Lee Lockhart,Walbridge,OH,USA,41.58783,-83.49327,#874658
Steven Brian Pennell,Glasgow,DE,USA,39.60483,-75.74521,#874659
Craig Price,Warwick,RI,USA,41.71749713,-71.40916503,#874660
Dorothy Williams,,IL,USA,41.278216,-88.380238,#874661
Patrick Baxter,White Plains,NY,USA,41.033985,-73.762909,#874662
Andrew David Edwards,Sunnyvale,CA,USA,37.368832,-122.036346,#874663
Clifton Ray,KS City,MO,USA,39.1,-94.58,#874664
Chester Turner,Warren,AR,USA,33.61261,-92.06458,#874665
Dellmus Colvin,Akron,OH,USA,41.078911,-81.452555,#874666
Anthony Kirkland,Cincinnati,OH,USA,39.136053,-84.522894,#874667
Marshall Lee Gore,Chicago,IL,USA,41.881832,-87.623177,#874668
Dale Wayne Eaton,Covington,TN,USA,35.56425,-89.64647,#874669
Lyndon Fitzgerald Pace,Atlanta,GA,USA,33.753746,-84.38633,#874670
Alfredo Prieto,San Martin,San Salvador,El Salvador,13.733874,-89.065133,#874671
Efren Saldivar,Brownsville,TX,USA,25.90175,-97.49748,#874672
Charles Cullen,West Orange,NJ,USA,40.79871,-74.23904,#874673
James Opelton Bradley,Fayetteville,NC,USA,35.078309,-78.953607,#874674
Westley Allan Dodd,Toppenish,WA,USA,46.3739985,-120.3071654,#874675
Billy Edwin Reid,Denver,CO,USA,39.719376,-104.967042,#874676
Charles Stevens,Oakland,CA,USA,37.804363,-122.271111,#874677
Ray Jackson,KS City,MO,USA,39.1,-94.58,#874678
Danny Rolling,Shreveport,LA,USA,32.46749813,-93.76933026,#874679
Aileen Wuornos,Rochester,MI,USA,42.68059,-83.13382,#874680
Thomas Dillon,Canton,OH,USA,40.79895,-81.37845,#874681
Scott Erskine,San Diego,CA,USA,32.715736,-117.161087,#874682
Lorenzo Fayne,Milwaukee,WI,USA,43.038902,-87.906471,#874683
Joel Rifkin,New York City,NY,USA,40.73061,-73.935242,#874684
Kristen Gilbert,Fall River,MA,USA,41.696629,-71.149994,#874685
James David Martin,The Bronx,NY,USA,40.837048,-73.865433,#874686
Donna Perry,Portland,OR,USA,45.531871,-122.680495,#874687
Christopher Peterson,Gary,IN,USA,41.595161,-87.356934,#874688
Cleophus Prince Jr.,Birmingham,AL,USA,33.524755,-86.81274,#874689
George Waterfield Russell,Mercer Island,WA,USA,47.567405,-122.222769,#874690
Israel Keyes,Richmond,UT,USA,41.91832966,-111.8061634,#874691
Charles Albright,Amarillo,TX,USA,35.199165,-101.845276,#874692
John Fautenberry,New London,CT,USA,41.355423,-72.10276,#874693
Heriberto Seda,New York City,NY,USA,40.73061,-73.935242,#874694
Henry Louis Wallace,Barnwell,SC,USA,33.23999904,-81.35799857,#874695
Keith Hunter Jesperson,Chilliwack,British Columbia,Canada,49.15794,-121.951469,#874696
Robert Eugene Brashers,Newport News,VA,USA,37.070831,-76.484444,#874697
Altemio Sanchez,San Sebasti√°n,,Puerto Rico,18.336057,-66.995208,#874698
Earl Richmond,Fayetteville,NC,USA,35.052666,-78.878357,#874699
Benjamin Atkins,Detroit,MI,USA,42.331429,-83.045753,#874700
Jerome Dennis,Newark,NJ,USA,40.735657,-74.172363,#874701
Harnoko Dewantoro,,,Indonesia,,,#874702
Frank Masini,Naples,,Italy,40.867745,14.381202,#874703
Allan Patterson Newman,Wheaton,MD,USA,39.039829,-77.05526,#874704
Sebastian Shaw,Chau Quong Ho,Ph∆∞·ªõc Tuy,Vietnam,13.889926,109.146247,#874705
Nathaniel White,Hudson Valley,NY,USA,42.423913,-75.165026,#874706
Leslie Allen Williams,Detroit,MI,USA,42.331429,-83.045753,#874707
Cesar Barone,Fort Lauderdale,FL,USA,26.122438,-80.137314,#874708
Robert Shulman,Hicksville,NY,USA,40.75799697,-73.52066458,#874709
Arohn Kee,New York City,NY,USA,40.776676,-73.971321,#874710
Malik Samartaney,Baltimore,MD,USA,39.311254,-76.622558,#874711
Roberto Arguelles,Kearns,UT,USA,40.65183073,-112.004,#874712
Harvey Miguel Robinson,Allentown,PA,USA,40.610306,-75.477104,#874713
William Sapp,Springfield,OH,USA,39.92423,-83.80882,#874714
John Eric Armstrong,New Bern,NC,USA,35.108494,-77.044113,#874715
Derrick Todd Lee,St. Francisville,LA,USA,30.788073,-91.376846,#874716
Neal Falls,Eugene,OR,USA,44.05207,-123.08675,#874717
John Bittrolff,Long Island,NY, USA,40.786881,-73.121702,#874718
Desmond Domnique Jennings,Tarrant County,TX,USA,32.77,-97.29,#874719
James Swann,Iselin,NJ,USA,40.574603,-74.316799,#874720
Ervin Cherry,St. Johns County,FL,USA,29.924299,-81.417929,#874721
Orville Lynn Majors,Linton,IN,USA,46.266659,-100.232895,#874722
Glen Edward Rogers,Hamilton,OH,USA,39.3995,-84.56134,#874723
Andre Crawford,Chicago,IL,USA,41.881832,-87.623177,#874724
Michael Gargiulo,Glenview,IL,USA,42.082127,-87.837479,#874725
Gary Ray Bowles,Clifton Forge,VA,USA,37.81849673,-79.82066338,#874726
Leon Dorsey,Dallas,TX,USA,32.779167,-96.808891,#874727
Dana Sue Gray,Southern CA,CA,USA,33.860032,-118.378498,#874728
Rory Enrique Conde,Barranquilla,Atlantico,Colombia,10.977575,-74.802912,#874729
Hubert Geralds,Chicago,IL,USA,41.881832,-87.623177,#874730
Jack Owen Spillman,Spokane,WA,USA,47.67323,-117.23937,#874731
Anthony Balaam,Trenton,NJ,USA,40.217052,-74.742935,#874732
Eric Matthews,INpolis,IN,USA,39.80283012,-86.12099952,#874733
Ramon Torres Hernandez,Bexar County,TX,USA,29.45,-98.52,#874734
Michelle Knotek,Raymond,WA,USA,46.6744973,-123.7361637,#874735
Sean Vincent Gillis,Baton Rouge,LA,USA,30.471165,-91.147385,#874736
Eugene Britt,Gary,IN,USA,41.595161,-87.356934,#874737
Francisco del Junco,,,Cuba,21.879308,-78.881556,#874738
Paul Runge,Oak Forest,IL,USA,41.60449758,-87.75033033,#874739
Alfred Gaynor,Springfield,MA,USA,42.101391,-72.590279,#874740
Tony Ray Amati,Carbondale,IL,USA,37.701206,-89.22821,#874741
Richard Evonitz,Columbia,SC,USA,34.00033333,-81.03983317,#874742
Kendall Francois,Poughkeepsie,NY,USA,41.70829,-73.923912,#874743
Sante Kimes,Oklahoma City,OK,USA,35.481918,-97.508469,#874744
Joseph Edward Duncan,Tacoma,WA,USA,47.258728,-122.465973,#874745
Frederick Pete Cox,Tallahassee,FL,USA,30.455,-84.253334,#874746
Andrew Cunanan,National City,CA,USA,32.66916399,-117.0889996,#874747
Charles Lee Duffy,Norcross,GA,USA,33.941212,-84.213531,#874748
Paul Dennis Reid,Richland Hills,TX,USA,32.834293,-97.228905,#874749
Wayne Adam Ford,Petaluma,CA,USA,38.244923,-122.626991,#874750
DeWayne Lee Harris,Seattle,WA,USA,47.608013,-122.335167,#874751
Paul Durousseau,Beaumont,TX,USA,30.080173,-94.126556,#874752
Ronald Dominique,Thibodaux,LA,USA,29.78866351,-90.81866339,#874753
Scott Williams,Monroe,NC,USA,34.98666272,-80.54316449,#874754
Robert Rembert,Cleveland,OH,USA,41.4926647,-81.68716392,#874755
Kenneth Williams,Pine Bluff,AR,USA,34.2284,-92.0032,#874756
Juan Covington,Philadelphia,PA,USA,39.998089,-75.134109,#874757
Dallen Bounds,Easley,SC,USA,34.82984,-82.60152,#874758
Todd Alan Reed,Portland,OR,USA,45.523064,-122.676483,#874759
Cary Stayner,Merced,CA,USA,37.325954,-120.499992,#874760
Vincent Johnson,New York City,NY,USA,40.650002,-73.949997,#874761
Reinaldo Rivera,Santurce,San Juan,Puerto Rico,18.445815,-66.06581,#874762
John Eichinger,Malvern,PA,USA,40.036217,-75.513809,#874763
"(Black Widow Murders) Rutterschmidt, Olga",Los Angeles,CA,USA,34.126189,-118.444348,#874764
(Black Widow Murders) Helen Golay,Los Angeles,CA,USA,34.126189,-118.444348,#874765
Rodney Bixler,Lawrenceburg,KY,USA,39.090893,-84.849953,#874766
Ronald James Ward,Hood River,OR,USA,45.7054,-121.52146,#874767
James Childers,Copen,WV,USA,38.8375952,-80.7295431,#874768
Roberto Wagner Fernandes,Londrina,Paran√°,Brazil,-23.306761,-51.173661,#874769
Terry Hankins,Tarrant County,TX,USA,32.77,-97.29,#874770
Vickie Dawn Jackson,Montague County,TX,USA,33.6588307,-97.71899712,#874771
Matthew Steven Johnson,Hartford,CT,USA,41.767,-72.677,#874772
Maury Travis,St. Louis,MO,USA,38.627003,-90.199402,#874773
Kevin Taylor,Chicago,IL,USA,41.881832,-87.623177,#874774
Jurijus Kadamovas,,Lithuania,Soviet Union,55.564533,23.694453,#874775
Iouri Mikhel,Leningrad,SFSR,Soviet Union,59.939239,30.311367,#874776
Shelly Brooks,Detroit,MI,USA,42.331429,-83.045753,#874777
Quincy Allen,Columbia,SC,USA,34.00033333,-81.03983317,#874778
Lee Boyd Malvo,Kingston,,Jamaica,18.014417,-76.799022,#874779
John Allen Muhammad,Baton Rouge,LA,USA,30.471165,-91.147385,#874780
Cory Morris,Oklahoma City,OK,USA,35.481918,-97.508469,#874781
William Clyde Gibson,Raleigh,NC,USA,35.884766,-78.625053,#874782
William Devin Howell,Hampton,VA,USA,37.02987,-76.34522,#874783
Cimarron Bell,South Whittier,CA,USA,33.982506,-118.040962,#874784
Larry Bright,Peoria County,IL,USA,40.69365,-89.58899,#874785
Scott Lee Kimball,Boulder,CO,USA,40.01499,-105.27055,#874786
Charles Severance,Fairfax County,VA,USA,38.83,-77.28,#874787
Todd Kohlhepp,Fort Lauderdale,FL,USA,26.122438,-80.137314,#874788
Eugene McWatters,Port Salerno,FL,USA,27.14422,-80.2006,#874789
Sheila LaBarre,Fort Payne,AL,USA,34.444256,-85.719582,#874790
Samuel Dieteman,Phoenix,AZ,USA,33.559336,-112.092123,#874791
Mark Goudeau,Phoenix,AZ,USA,33.448376,-112.074036,#874792
Ricky Javon Gray,Richmond,VA,USA,37.55376,-77.46026,#874793
Robert Hayes,West Palm Beach,FL,USA,26.709723,-80.064163,#874794
 Preston Strong,Camden,NJ,USA,39.936961,-75.11205,#874795
Jorge Avila-Torrez,Zion,IL,USA,42.45199819,-87.83749665,#874796
Rocky Beamon,Raiford,FL,USA,30.061619,-82.240724,#874797
Dale Hausner,Phoenix,AZ,USA,33.559336,-112.092123,#874798
Samuel Cooper,Baltimore,NC,USA,35.56646,-82.542686,#874799
Shawn Grate,Marion,OH,USA,40.58867,-83.12852,#874800
Adam Leroy Lane,Jonesville,NC,USA,36.239301,-80.844515,#874801
Joe Brant,New Orleans,LA,USA,30.05432,-89.949863,#874802
Gary Hilton,Atlanta,GA,USA,33.753746,-84.38633,#874803
Anthony Sowell,Columbus,OH,USA,40.019161,-82.982596,#874804
Robert Charles Gleason,Lowell,MA,USA,42.640999,-71.316711,#874805
Kimberly Clark Saenz,Fall River,MA,USA,41.696629,-71.149994,#874806
Jesse Matthew,Charlottesville,VA,USA,38.049347,-78.487978,#874807
Antonio Rodriguez,Philadelphia,PA,USA,39.998089,-75.134109,#874808
Itzcoatl Ocampo,Mexico City,Mexico City,Mexico,19.432523,-99.131613,#874809
Michael Madison,East Cleveland,OH,USA,41.53311,-81.57901,#874810
Darren Deon Vann,Gary,IN,USA,41.588555,-87.336812,#874811
Aeman Presley,Chicago,IL,USA,41.881832,-87.623177,#874812
James Dale Ritchie,Anchorage,AK,USA,61.217381,-149.863129,#874813
Khalil Wheeler-Weaver,Orange,NJ,USA,40.766682,-74.235248,#874814
Reta Mays,Reynoldsville,WV,USA,39.281567,-80.344215,#874815
Kenyel Brown,River Rouge,MI,USA,42.27066558,-83.13399946,#874816